$$SOE
2461302.500000000, A.D. 2026-Sep-19 00:00:00.0000, 4.403633109997019E+08, 1.522941783567775E+08, -1.361861682846137E+08,
2461309.500000000, A.D. 2026-Sep-26 00:00:00.0000, 4.368556892225503E+08, 1.606944432965838E+08, -1.359422515636532E+08,
2461316.500000000, A.D. 2026-Oct-03 00:00:00.0000, 4.331620926166620E+08, 1.690262599823177E+08, -1.356404541141542E+08,
2461323.500000000, A.D. 2026-Oct-10 00:00:00.0000, 4.292834460037448E+08, 1.772858263532341E+08, -1.352807017706669E+08,
2461330.500000000, A.D. 2026-Oct-17 00:00:00.0000, 4.252207211970264E+08, 1.854693282475244E+08, -1.348629323623526E+08,
2461337.500000000, A.D. 2026-Oct-24 00:00:00.0000, 4.209749381160023E+08, 1.935729386252569E+08, -1.343870959796208E+08,
2461344.500000000, A.D. 2026-Oct-31 00:00:00.0000, 4.165471660625733E+08, 2.015928166524222E+08, -1.338531552844774E+08,
2461351.500000000, A.D. 2026-Nov-07 00:00:00.0000, 4.119385254979597E+08, 2.095251067229860E+08, -1.332610858895407E+08,
2461358.500000000, A.D. 2026-Nov-14 00:00:00.0000, 4.071501905218251E+08, 2.173659383094247E+08, -1.326108767518189E+08,
2461365.500000000, A.D. 2026-Nov-21 00:00:00.0000, 4.021833902424021E+08, 2.251114273277105E+08, -1.319025303597343E+08,
2461372.500000000, A.D. 2026-Nov-28 00:00:00.0000, 3.970394080428496E+08, 2.327576760141713E+08, -1.311360628695518E+08,
2461379.500000000, A.D. 2026-Dec-05 00:00:00.0000, 3.917195823683707E+08, 2.403007706609905E+08, -1.303115045791189E+08,
2461386.500000000, A.D. 2026-Dec-12 00:00:00.0000, 3.862253092013482E+08, 2.477367803227930E+08, -1.294289005004144E+08,
2461393.500000000, A.D. 2026-Dec-19 00:00:00.0000, 3.805580443385192E+08, 2.550617565034035E+08, -1.284883108574520E+08,
2461400.500000000, A.D. 2026-Dec-26 00:00:00.0000, 3.747193053294205E+08, 2.622717329581100E+08, -1.274898115678352E+08,
2461407.500000000, A.D. 2027-Jan-02 00:00:00.0000, 3.687106733533565E+08, 2.693627254241016E+08, -1.264334947493639E+08,
2461414.500000000, A.D. 2027-Jan-09 00:00:00.0000, 3.625337951527847E+08, 2.763307313031233E+08, -1.253194692613095E+08,
2461421.500000000, A.D. 2027-Jan-16 00:00:00.0000, 3.561903850589193E+08, 2.831717293094302E+08, -1.241478612835115E+08,
2461428.500000000, A.D. 2027-Jan-23 00:00:00.0000, 3.496822271556901E+08, 2.898816790481651E+08, -1.229188149415359E+08,
2461435.500000000, A.D. 2027-Jan-30 00:00:00.0000, 3.430111777699573E+08, 2.964565204816721E+08, -1.216324930000464E+08,
2461442.500000000, A.D. 2027-Feb-06 00:00:00.0000, 3.361791687132306E+08, 3.028921736291839E+08, -1.202890776368132E+08,
2461449.500000000, A.D. 2027-Feb-13 00:00:00.0000, 3.291882108144922E+08, 3.091845397241647E+08, -1.188887711562344E+08,
2461456.500000000, A.D. 2027-Feb-20 00:00:00.0000, 3.220403953785230E+08, 3.153295030440383E+08, -1.174317964903738E+08,
2461463.500000000, A.D. 2027-Feb-27 00:00:00.0000, 3.147378949661715E+08, 3.213229302075806E+08, -1.159183978798845E+08,
2461470.500000000, A.D. 2027-Mar-06 00:00:00.0000, 3.072829665173535E+08, 3.271606688701167E+08, -1.143488418566619E+08,
2461477.500000000, A.D. 2027-Mar-13 00:00:00.0000, 2.996779552171497E+08, 3.328385478723233E+08, -1.127234182147508E+08,
2461484.500000000, A.D. 2027-Mar-20 00:00:00.0000, 2.919252979755864E+08, 3.383523780159269E+08, -1.110424409348870E+08,
2461491.500000000, A.D. 2027-Mar-27 00:00:00.0000, 2.840275267235940E+08, 3.436979529262983E+08, -1.093062491271476E+08,
2461498.500000000, A.D. 2027-Apr-03 00:00:00.0000, 2.759872717285041E+08, 3.488710499635930E+08, -1.075152080153082E+08,
2461505.500000000, A.D. 2027-Apr-10 00:00:00.0000, 2.678072649904631E+08, 3.538674312153742E+08, -1.056697099676360E+08,
2461512.500000000, A.D. 2027-Apr-17 00:00:00.0000, 2.594903437415499E+08, 3.586828445668598E+08, -1.037701755782038E+08,
2461519.500000000, A.D. 2027-Apr-24 00:00:00.0000, 2.510394541260753E+08, 3.633130247978405E+08, -1.018170548119109E+08,
2461526.500000000, A.D. 2027-May-01 00:00:00.0000, 2.424576553606719E+08, 3.677536947462648E+08, -9.981082823932981E+07,
2461533.500000000, A.D. 2027-May-08 00:00:00.0000, 2.337481246807112E+08, 3.720005672996485E+08, -9.775200832944649E+07,
2461540.500000000, A.D. 2027-May-15 00:00:00.0000, 2.249141615743296E+08, 3.760493491792937E+08, -9.564114058532858E+07,
2461547.500000000, A.D. 2027-May-22 00:00:00.0000, 2.159591897351138E+08, 3.798957439383410E+08, -9.347880459041758E+07,
2461554.500000000, A.D. 2027-May-29 00:00:00.0000, 2.068867600853976E+08, 3.835354527228757E+08, -9.126561539424030E+07,
2461561.500000000, A.D. 2027-Jun-05 00:00:00.0000, 1.977005557529533E+08, 3.869641759441906E+08, -8.900222506390828E+07,
2461568.500000000, A.D. 2027-Jun-12 00:00:00.0000, 1.884043969888368E+08, 3.901776163086861E+08, -8.668932418160360E+07,
2461575.500000000, A.D. 2027-Jun-19 00:00:00.0000, 1.790022456891522E+08, 3.931714822863486E+08, -8.432764333340202E+07,
2461582.500000000, A.D. 2027-Jun-26 00:00:00.0000, 1.694982097933010E+08, 3.959414917728791E+08, -8.191795463542624E+07,
2461589.500000000, A.D. 2027-Jul-03 00:00:00.0000, 1.598965476823848E+08, 3.984833759698450E+08, -7.946107330704257E+07,
2461596.500000000, A.D. 2027-Jul-10 00:00:00.0000, 1.502016726036010E+08, 4.007928835078768E+08, -7.695785929135592E+07,
2461603.500000000, A.D. 2027-Jul-17 00:00:00.0000, 1.404181571433138E+08, 4.028657847918305E+08, -7.440921892689367E+07,
2461610.500000000, A.D. 2027-Jul-24 00:00:00.0000, 1.305507378897682E+08, 4.046978765254306E+08, -7.181610668769260E+07,
2461617.500000000, A.D. 2027-Jul-31 00:00:00.0000, 1.206043206809319E+08, 4.062849866738049E+08, -6.917952700854032E+07,
2461624.500000000, A.D. 2027-Aug-07 00:00:00.0000, 1.105839862214549E+08, 4.076229810394778E+08, -6.650053608124360E+07,
2461631.500000000, A.D. 2027-Aug-14 00:00:00.0000, 1.004949937514731E+08, 4.087077712188373E+08, -6.378024342842995E+07,
2461638.500000000, A.D. 2027-Aug-21 00:00:00.0000, 9.034278336334728E+07, 4.095353205935556E+08, -6.101981358142164E+07,
2461645.500000000, A.D. 2027-Aug-28 00:00:00.0000, 8.013298037323272E+07, 4.101016495840669E+08, -5.822046807440916E+07,
2461652.500000000, A.D. 2027-Sep-04 00:00:00.0000, 6.987140054259826E+07, 4.104028426894714E+08, -5.538348743739659E+07,
2461659.500000000, A.D. 2027-Sep-11 00:00:00.0000, 5.956405472600972E+07, 4.104350566713368E+08, -5.251021310737149E+07,
2461666.500000000, A.D. 2027-Sep-18 00:00:00.0000, 4.921715304592627E+07, 4.101945292505626E+08, -4.960204931575264E+07,
2461673.500000000, A.D. 2027-Sep-25 00:00:00.0000, 3.883710878813410E+07, 4.096775882592930E+08, -4.666046497158568E+07,
2461680.500000000, A.D. 2027-Oct-02 00:00:00.0000, 2.843054205468860E+07, 4.088806612943366E+08, -4.368699553638104E+07,
2461687.500000000, A.D. 2027-Oct-09 00:00:00.0000, 1.800428315542341E+07, 4.078002858852143E+08, -4.068324488324299E+07,
2461694.500000000, A.D. 2027-Oct-16 00:00:00.0000, 7.565375756328016E+06, 4.064331201378816E+08, -3.765088713963450E+07,
2461701.500000000, A.D. 2027-Oct-23 00:00:00.0000, -2.878920003987365E+06, 4.047759538623597E+08, -3.459166852593172E+07,
2461708.500000000, A.D. 2027-Oct-30 00:00:00.0000, -1.332112410768302E+07, 4.028257208068959E+08, -3.150740916098689E+07,
2461715.500000000, A.D. 2027-Nov-06 00:00:00.0000, -2.375353417967444E+07, 4.005795131374623E+08, -2.840000462155861E+07,
2461722.500000000, A.D. 2027-Nov-13 00:00:00.0000, -3.416822598075514E+07, 3.980345960898464E+08, -2.527142722689566E+07,
2461729.500000000, A.D. 2027-Nov-20 00:00:00.0000, -4.455705403519343E+07, 3.951884206048967E+08, -2.212372747459957E+07,
2461736.500000000, A.D. 2027-Nov-27 00:00:00.0000, -5.491165084556863E+07, 3.920386369110779E+08, -1.895903551529241E+07,
2461743.500000000, A.D. 2027-Dec-04 00:00:00.0000, -6.522342678754076E+07, 3.885831099626943E+08, -1.577956238597001E+07,
2461750.500000000, A.D. 2027-Dec-11 00:00:00.0000, -7.548357130796538E+07, 3.848199357542381E+08, -1.258760100805311E+07,
2461757.500000000, A.D. 2027-Dec-18 00:00:00.0000, -8.568305522841805E+07, 3.807474581498559E+08, -9.385526979251236E+06,
2461764.500000000, A.D. 2027-Dec-25 00:00:00.0000, -9.581263408149785E+07, 3.763642861971235E+08, -6.175799148192689E+06,
2461771.500000000, A.D. 2028-Jan-01 00:00:00.0000, -1.058628525193924E+08, 3.716693119025364E+08, -2.960959947873756E+06,
$$EOE